{
  "norad_id": 64088,
  "name": "2025-108B",
  "history": [
    {
      "epoch": "2026-04-10T12:12:53.413056Z",
      "apogee_km": 515.2129275834068,
      "perigee_km": 499.8620049283363,
      "latitude_deg": -5.165257103943832e-05,
      "longitude_deg": 155.1438757074666,
      "height_km": 514.4990559962647,
      "semi_major_axis_km": 6885.674466255871,
      "eccentricity": 0.0011147,
      "inclination_deg": 97.4746,
      "raan_deg": 177.1082,
      "arg_perigee_deg": 239.7625,
      "mean_anomaly_deg": 120.2506,
      "mean_motion_rev_day": 15.19438169
    },
    {
      "epoch": "2026-04-11T19:49:31.615968Z",
      "apogee_km": 515.2150032352911,
      "perigee_km": 499.7388973206471,
      "latitude_deg": 2.2573740111318445e-05,
      "longitude_deg": 40.99058306331472,
      "height_km": 515.024278319116,
      "semi_major_axis_km": 6885.613950277969,
      "eccentricity": 0.0011238,
      "inclination_deg": 97.4749,
      "raan_deg": 178.4123,
      "arg_perigee_deg": 234.8864,
      "mean_anomaly_deg": 125.1318,
      "mean_motion_rev_day": 15.194582
    },
    {
      "epoch": "2026-04-13T06:35:48.092352Z",
      "apogee_km": 515.220816054506,
      "perigee_km": 499.6398788380102,
      "latitude_deg": 2.857557960851267e-05,
      "longitude_deg": -120.57167416483266,
      "height_km": 515.6160452410826,
      "semi_major_axis_km": 6885.567347446257,
      "eccentricity": 0.00113142,
      "inclination_deg": 97.4751,
      "raan_deg": 179.8467,
      "arg_perigee_deg": 229.2112,
      "mean_anomaly_deg": 130.8142,
      "mean_motion_rev_day": 15.19473626
    },
    {
      "epoch": "2026-04-14T20:31:42.930336Z",
      "apogee_km": 515.2558141258387,
      "perigee_km": 499.516884853575,
      "latitude_deg": 6.9348980044076e-05,
      "longitude_deg": 30.456722876678732,
      "height_km": 516.2042358737771,
      "semi_major_axis_km": 6885.523349489707,
      "eccentricity": 0.0011429,
      "inclination_deg": 97.4751,
      "raan_deg": 181.4114,
      "arg_perigee_deg": 223.3594,
      "mean_anomaly_deg": 136.6743,
      "mean_motion_rev_day": 15.1948819
    },
    {
      "epoch": "2026-04-15T20:14:09.091392Z",
      "apogee_km": 515.2924802292619,
      "perigee_km": 499.42416770564705,
      "latitude_deg": 5.5435241870606206e-05,
      "longitude_deg": 34.852199340727445,
      "height_km": 516.5655589831878,
      "semi_major_axis_km": 6885.495323967454,
      "eccentricity": 0.0011523,
      "inclination_deg": 97.4751,
      "raan_deg": 182.3895,
      "arg_perigee_deg": 219.6263,
      "mean_anomaly_deg": 140.4131,
      "mean_motion_rev_day": 15.19497467
    },
    {
      "epoch": "2026-04-16T19:56:34.847232Z",
      "apogee_km": 515.3248222706679,
      "perigee_km": 499.33676605262553,
      "latitude_deg": 7.405274563338936e-05,
      "longitude_deg": 39.24936456134849,
      "height_km": 516.9052111796099,
      "semi_major_axis_km": 6885.467794161646,
      "eccentricity": 0.001161,
      "inclination_deg": 97.475,
      "raan_deg": 183.3676,
      "arg_perigee_deg": 215.8643,
      "mean_anomaly_deg": 144.1814,
      "mean_motion_rev_day": 15.1950658
    },
    {
      "epoch": "2026-04-17T22:48:39.388032Z",
      "apogee_km": 515.3569840026084,
      "perigee_km": 499.2282782175098,
      "latitude_deg": 5.397638121556893e-05,
      "longitude_deg": -3.7644779934370316,
      "height_km": 517.2417242742442,
      "semi_major_axis_km": 6885.429631110059,
      "eccentricity": 0.00117122,
      "inclination_deg": 97.4747,
      "raan_deg": 184.4761,
      "arg_perigee_deg": 211.8065,
      "mean_anomaly_deg": 148.2464,
      "mean_motion_rev_day": 15.19519213
    },
    {
      "epoch": "2026-04-18T19:21:24.539328Z",
      "apogee_km": 515.363180456523,
      "perigee_km": 499.15083172977666,
      "latitude_deg": 5.550429569740005e-05,
      "longitude_deg": 48.051202339641264,
      "height_km": 517.4673009684294,
      "semi_major_axis_km": 6885.39400609315,
      "eccentricity": 0.0011773,
      "inclination_deg": 97.4746,
      "raan_deg": 185.3237,
      "arg_perigee_deg": 208.6332,
      "mean_anomaly_deg": 151.4258,
      "mean_motion_rev_day": 15.19531006
    },
    {
      "epoch": "2026-04-19T20:38:37.676256Z",
      "apogee_km": 515.3761103837496,
      "perigee_km": 499.0385653388721,
      "latitude_deg": -4.8090054782074434e-05,
      "longitude_deg": 28.751278103926005,
      "height_km": 517.7169537294832,
      "semi_major_axis_km": 6885.344337861311,
      "eccentricity": 0.0011864,
      "inclination_deg": 97.4741,
      "raan_deg": 186.367,
      "arg_perigee_deg": 204.8148,
      "mean_anomaly_deg": 155.2517,
      "mean_motion_rev_day": 15.19547448
    },
    {
      "epoch": "2026-04-20T14:01:42.472704Z",
      "apogee_km": 515.4150060294414,
      "perigee_km": 498.95192937834327,
      "latitude_deg": -9.761928306999443e-06,
      "longitude_deg": 127.98452358477758,
      "height_km": 517.8936459584481,
      "semi_major_axis_km": 6885.320467703892,
      "eccentricity": 0.00119552,
      "inclination_deg": 97.4738,
      "raan_deg": 187.0842,
      "arg_perigee_deg": 202.309,
      "mean_anomaly_deg": 157.7626,
      "mean_motion_rev_day": 15.1955535
    },
    {
      "epoch": "2026-04-21T20:03:22.396896Z",
      "apogee_km": 515.4398383720109,
      "perigee_km": 498.8036761627018,
      "latitude_deg": -4.8895166306829336e-05,
      "longitude_deg": 37.57397863441446,
      "height_km": 518.1249162435206,
      "semi_major_axis_km": 6885.2587572673565,
      "eccentricity": 0.0012081,
      "inclination_deg": 97.4735,
      "raan_deg": 188.3232,
      "arg_perigee_deg": 198.0435,
      "mean_anomaly_deg": 162.0372,
      "mean_motion_rev_day": 15.19575779
    },
    {
      "epoch": "2026-04-22T18:10:54.467904Z",
      "apogee_km": 515.5294773706428,
      "perigee_km": 498.69091682541966,
      "latitude_deg": -4.357224589356859e-05,
      "longitude_deg": 65.69478138021051,
      "height_km": 518.35306493916,
      "semi_major_axis_km": 6885.2471970980305,
      "eccentricity": 0.0012228,
      "inclination_deg": 97.4736,
      "raan_deg": 189.2363,
      "arg_perigee_deg": 194.5478,
      "mean_anomaly_deg": 165.5406,
      "mean_motion_rev_day": 15.19579606
    },
    {
      "epoch": "2026-04-23T13:08:58.007904Z",
      "apogee_km": 515.817501914491,
      "perigee_km": 500.00259310236015,
      "latitude_deg": 7.939251263200174e-05,
      "longitude_deg": 141.1813400702193,
      "height_km": 518.7248362874617,
      "semi_major_axis_km": 6886.047047508426,
      "eccentricity": 0.00114833,
      "inclination_deg": 97.4732,
      "raan_deg": 190.0166,
      "arg_perigee_deg": 192.4205,
      "mean_anomaly_deg": 167.6749,
      "mean_motion_rev_day": 15.19314853
    },
    {
      "epoch": "2026-04-23T14:43:49.206144Z",
      "apogee_km": 516.1100527393128,
      "perigee_km": 500.40260274233606,
      "latitude_deg": 7.369410828819787e-05,
      "longitude_deg": 117.47018991583026,
      "height_km": 519.0546526619478,
      "semi_major_axis_km": 6886.393327740824,
      "eccentricity": 0.00114047,
      "inclination_deg": 97.4741,
      "raan_deg": 190.0837,
      "arg_perigee_deg": 191.1145,
      "mean_anomaly_deg": 168.984,
      "mean_motion_rev_day": 15.19200257
    },
    {
      "epoch": "2026-04-25T17:19:58.548288Z",
      "apogee_km": 517.5025301355254,
      "perigee_km": 504.1819998287556,
      "latitude_deg": -1.0877940028332335e-06,
      "longitude_deg": 78.43829770941123,
      "height_km": 520.5712815033886,
      "semi_major_axis_km": 6888.97926498214,
      "eccentricity": 0.0009668,
      "inclination_deg": 97.4741,
      "raan_deg": 192.1689,
      "arg_perigee_deg": 184.4308,
      "mean_anomaly_deg": 175.6842,
      "mean_motion_rev_day": 15.18344937
    },
    {
      "epoch": "2026-04-26T21:48:11.831328Z",
      "apogee_km": 517.5637309812355,
      "perigee_km": 504.1291110728862,
      "latitude_deg": -1.35134886492389e-05,
      "longitude_deg": 11.38561782870729,
      "height_km": 520.6509560456605,
      "semi_major_axis_km": 6888.983421027061,
      "eccentricity": 0.00097508,
      "inclination_deg": 97.474,
      "raan_deg": 193.3408,
      "arg_perigee_deg": 180.7453,
      "mean_anomaly_deg": 179.3768,
      "mean_motion_rev_day": 15.18343563
    },
    {
      "epoch": "2026-04-27T19:56:47.890176Z",
      "apogee_km": 517.5501427608624,
      "perigee_km": 504.0230523846694,
      "latitude_deg": 1.7588035240031713e-05,
      "longitude_deg": 39.237874247325756,
      "height_km": 520.6314897026069,
      "semi_major_axis_km": 6888.923597572766,
      "eccentricity": 0.0009818,
      "inclination_deg": 97.4742,
      "raan_deg": 194.2527,
      "arg_perigee_deg": 177.6522,
      "mean_anomaly_deg": 182.476,
      "mean_motion_rev_day": 15.18363341
    },
    {
      "epoch": "2026-04-28T08:35:59.504640Z",
      "apogee_km": 517.5437771930419,
      "perigee_km": 503.97127719556374,
      "latitude_deg": -4.2886220098664225e-05,
      "longitude_deg": -150.55926060633527,
      "height_km": 520.6130047878953,
      "semi_major_axis_km": 6888.894527194302,
      "eccentricity": 0.0009851,
      "inclination_deg": 97.4743,
      "raan_deg": 194.7736,
      "arg_perigee_deg": 175.9024,
      "mean_anomaly_deg": 184.2292,
      "mean_motion_rev_day": 15.18372952
    },
    {
      "epoch": "2026-04-29T19:24:27.751392Z",
      "apogee_km": 518.6804927831463,
      "perigee_km": 506.82815970200863,
      "latitude_deg": 8.786001689252042e-06,
      "longitude_deg": 47.325231059540066,
      "height_km": 521.6729443317821,
      "semi_major_axis_km": 6890.891326242577,
      "eccentricity": 0.00086,
      "inclination_deg": 97.4744,
      "raan_deg": 196.2053,
      "arg_perigee_deg": 169.9077,
      "mean_anomaly_deg": 190.2331,
      "mean_motion_rev_day": 15.17713023
    }
  ]
}